{
  "type": "FeatureCollection",
  "features": [
    {
      "type": "Feature",
      "properties": {
        "norad_id": 32461,
        "name": "FENGYUN 1C DEB",
        "group": "fengyun-1c-debris",
        "lat": 64.06164597312204,
        "lon": 49.086836119787264,
        "alt_km": 829.978172670666,
        "timestamp": "2025-12-23T18:59:32.253110+00:00",
        "meta_object_name": "FENGYUN 1C DEB",
        "meta_object_id": "1999-025DBZ",
        "meta_epoch": "2025-12-23T01:41:08.735136",
        "meta_mean_motion": 13.72860394,
        "meta_eccentricity": 0.0232757,
        "meta_inclination": 98.3338,
        "meta_ra_of_asc_node": 210.9198,
        "meta_arg_of_pericenter": 89.111,
        "meta_mean_anomaly": 62.3066,
        "meta_ephemeris_type": 0,
        "meta_classification_type": "U",
        "meta_norad_cat_id": 32461,
        "meta_element_set_no": 999,
        "meta_rev_at_epoch": 67436,
        "meta_bstar": 0.001204626,
        "meta_mean_motion_dot": 1.314e-05,
        "meta_mean_motion_ddot": 0,
        "tle_line1": "1 32461U 99025DBZ 25357.07023999  .00001314  00000+0  12046-2 0  9995",
        "tle_line2": "2 32461  98.3338 210.9198 0232757  89.1110  62.3066 13.72860394674360"
      },
      "geometry": {
        "type": "Point",
        "coordinates": [
          49.086836119787264,
          64.06164597312204
        ]
      }
    },
    {
      "type": "Feature",
      "properties": {
        "norad_id": 32464,
        "name": "FENGYUN 1C DEB",
        "group": "fengyun-1c-debris",
        "lat": -66.84400314741832,
        "lon": 38.97306603012614,
        "alt_km": 598.7729907438488,
        "timestamp": "2025-12-23T18:59:32.253119+00:00",
        "meta_object_name": "FENGYUN 1C DEB",
        "meta_object_id": "1999-025DCC",
        "meta_epoch": "2025-12-21T12:37:00.257088",
        "meta_mean_motion": 14.93152504,
        "meta_eccentricity": 0.0112637,
        "meta_inclination": 97.3542,
        "meta_ra_of_asc_node": 19.2775,
        "meta_arg_of_pericenter": 206.4397,
        "meta_mean_anomaly": 153.105,
        "meta_ephemeris_type": 0,
        "meta_classification_type": "U",
        "meta_norad_cat_id": 32464,
        "meta_element_set_no": 999,
        "meta_rev_at_epoch": 60923,
        "meta_bstar": 0.00088935,
        "meta_mean_motion_dot": 0.00010459,
        "meta_mean_motion_ddot": 0,
        "tle_line1": "1 32464U 99025DCC 25355.52569742  .00010459  00000+0  88935-3 0  9998",
        "tle_line2": "2 32464  97.3542  19.2775 0112637 206.4397 153.1050 14.93152504609232"
      },
      "geometry": {
        "type": "Point",
        "coordinates": [
          38.97306603012614,
          -66.84400314741832
        ]
      }
    },
    {
      "type": "Feature",
      "properties": {
        "norad_id": 33502,
        "name": "FENGYUN 1C DEB",
        "group": "fengyun-1c-debris",
        "lat": -40.85867298562994,
        "lon": 112.89934308563862,
        "alt_km": 835.3473723510269,
        "timestamp": "2025-12-23T18:59:32.253128+00:00",
        "meta_object_name": "FENGYUN 1C DEB",
        "meta_object_id": "1999-025DCF",
        "meta_epoch": "2025-12-22T20:17:17.769984",
        "meta_mean_motion": 14.21961293,
        "meta_eccentricity": 0.00800796,
        "meta_inclination": 99.0271,
        "meta_ra_of_asc_node": 299.835,
        "meta_arg_of_pericenter": 123.4929,
        "meta_mean_anomaly": 297.0482,
        "meta_ephemeris_type": 0,
        "meta_classification_type": "U",
        "meta_norad_cat_id": 33502,
        "meta_element_set_no": 999,
        "meta_rev_at_epoch": 87099,
        "meta_bstar": 0.0024035841,
        "meta_mean_motion_dot": 5.441e-05,
        "meta_mean_motion_ddot": 0,
        "tle_line1": "1 33502U 99025DCF 25356.84534456  .00005441  00000+0  24036-2 0  9998",
        "tle_line2": "2 33502  99.0271 299.8350 0080079 123.4929 297.0482 14.21961293870996"
      },
      "geometry": {
        "type": "Point",
        "coordinates": [
          112.89934308563862,
          -40.85867298562994
        ]
      }
    },
    {
      "type": "Feature",
      "properties": {
        "norad_id": 33599,
        "name": "FENGYUN 1C DEB",
        "group": "fengyun-1c-debris",
        "lat": -80.78929063704233,
        "lon": 109.81819942374884,
        "alt_km": 441.94153472109247,
        "timestamp": "2025-12-23T18:59:32.253137+00:00",
        "meta_object_name": "FENGYUN 1C DEB",
        "meta_object_id": "1999-025DCG",
        "meta_epoch": "2025-12-06T10:36:41.156064",
        "meta_mean_motion": 15.14898296,
        "meta_eccentricity": 0.0126212,
        "meta_inclination": 96.6136,
        "meta_ra_of_asc_node": 49.0151,
        "meta_arg_of_pericenter": 322.3863,
        "meta_mean_anomaly": 36.8593,
        "meta_ephemeris_type": 0,
        "meta_classification_type": "U",
        "meta_norad_cat_id": 33599,
        "meta_element_set_no": 999,
        "meta_rev_at_epoch": 65908,
        "meta_bstar": 0.0016783,
        "meta_mean_motion_dot": 0.00038297,
        "meta_mean_motion_ddot": 0,
        "tle_line1": "1 33599U 99025DCG 25340.44214301  .00038297  00000+0  16783-2 0  9992",
        "tle_line2": "2 33599  96.6136  49.0151 0126212 322.3863  36.8593 15.14898296659088"
      },
      "geometry": {
        "type": "Point",
        "coordinates": [
          109.81819942374884,
          -80.78929063704233
        ]
      }
    },
    {
      "type": "Feature",
      "properties": {
        "norad_id": 33601,
        "name": "FENGYUN 1C DEB",
        "group": "fengyun-1c-debris",
        "lat": 58.67512871887767,
        "lon": 139.21716411431254,
        "alt_km": 788.0649666440459,
        "timestamp": "2025-12-23T18:59:32.253146+00:00",
        "meta_object_name": "FENGYUN 1C DEB",
        "meta_object_id": "1999-025DCJ",
        "meta_epoch": "2025-12-20T15:39:56.393856",
        "meta_mean_motion": 14.07944866,
        "meta_eccentricity": 0.01580649,
        "meta_inclination": 98.315,
        "meta_ra_of_asc_node": 150.2281,
        "meta_arg_of_pericenter": 120.0605,
        "meta_mean_anomaly": 241.635,
        "meta_ephemeris_type": 0,
        "meta_classification_type": "U",
        "meta_norad_cat_id": 33601,
        "meta_element_set_no": 999,
        "meta_rev_at_epoch": 90791,
        "meta_bstar": 0.00090389352,
        "meta_mean_motion_dot": 1.684e-05,
        "meta_mean_motion_ddot": 0,
        "tle_line1": "1 33601U 99025DCJ 25354.65273604  .00001684  00000+0  90389-3 0  9990",
        "tle_line2": "2 33601  98.3150 150.2281 0158064 120.0605 241.6350 14.07944866907914"
      },
      "geometry": {
        "type": "Point",
        "coordinates": [
          139.21716411431254,
          58.67512871887767
        ]
      }
    },
    {
      "type": "Feature",
      "properties": {
        "norad_id": 33603,
        "name": "FENGYUN 1C DEB",
        "group": "fengyun-1c-debris",
        "lat": 74.332181191487,
        "lon": -99.00812020699173,
        "alt_km": 501.59287810976366,
        "timestamp": "2025-12-23T18:59:32.253155+00:00",
        "meta_object_name": "FENGYUN 1C DEB",
        "meta_object_id": "1999-025DCL",
        "meta_epoch": "2025-12-23T02:26:01.945824",
        "meta_mean_motion": 14.79974256,
        "meta_eccentricity": 0.02200697,
        "meta_inclination": 98.8064,
        "meta_ra_of_asc_node": 293.7889,
        "meta_arg_of_pericenter": 39.891,
        "meta_mean_anomaly": 321.8241,
        "meta_ephemeris_type": 0,
        "meta_classification_type": "U",
        "meta_norad_cat_id": 33603,
        "meta_element_set_no": 999,
        "meta_rev_at_epoch": 99013,
        "meta_bstar": 0.0002845535,
        "meta_mean_motion_dot": 3.178e-05,
        "meta_mean_motion_ddot": 0,
        "tle_line1": "1 33603U 99025DCL 25357.10141141  .00003178  00000+0  28455-3 0  9990",
        "tle_line2": "2 33603  98.8064 293.7889 0220069  39.8910 321.8241 14.79974256990134"
      },
      "geometry": {
        "type": "Point",
        "coordinates": [
          -99.00812020699173,
          74.332181191487
        ]
      }
    },
    {
      "type": "Feature",
      "properties": {
        "norad_id": 33605,
        "name": "FENGYUN 1C DEB",
        "group": "fengyun-1c-debris",
        "lat": -10.181077869800914,
        "lon": -2.020918307132483,
        "alt_km": 846.5517640496937,
        "timestamp": "2025-12-23T18:59:32.253164+00:00",
        "meta_object_name": "FENGYUN 1C DEB",
        "meta_object_id": "1999-025DCN",
        "meta_epoch": "2025-12-10T07:01:31.719072",
        "meta_mean_motion": 14.0776111,
        "meta_eccentricity": 0.0057186,
        "meta_inclination": 98.6977,
        "meta_ra_of_asc_node": 343.4026,
        "meta_arg_of_pericenter": 81.9564,
        "meta_mean_anomaly": 295.3635,
        "meta_ephemeris_type": 0,
        "meta_classification_type": "U",
        "meta_norad_cat_id": 33605,
        "meta_element_set_no": 999,
        "meta_rev_at_epoch": 59784,
        "meta_bstar": 0.00085517,
        "meta_mean_motion_dot": 1.428e-05,
        "meta_mean_motion_ddot": 0,
        "tle_line1": "1 33605U 99025DCN 25344.29272823  .00001428  00000+0  85517-3 0  9998",
        "tle_line2": "2 33605  98.6977 343.4026 0057186  81.9564 295.3635 14.07761110597841"
      },
      "geometry": {
        "type": "Point",
        "coordinates": [
          -2.020918307132483,
          -10.181077869800914
        ]
      }
    }
  ]
}